[{"OBJECT_NAME":"STARLINK-32837","OBJECT_ID":"2025-018G","EPOCH":"2026-03-09T23:18:25.622496","MEAN_MOTION":15.30197311,"ECCENTRICITY":0.00017826,"INCLINATION":53.16,"RA_OF_ASC_NODE":308.1474,"ARG_OF_PERICENTER":168.9853,"MEAN_ANOMALY":191.1188,"EPHEMERIS_TYPE":0,"CLASSIFICATION_TYPE":"U","NORAD_CAT_ID":62812,"ELEMENT_SET_NO":999,"REV_AT_EPOCH":6322,"BSTAR":0.00035972158,"MEAN_MOTION_DOT":0.00010309,"MEAN_MOTION_DDOT":0},{"OBJECT_NAME":"SCS-01 D","OBJECT_ID":"2025-100D","EPOCH":"2026-03-09T18:08:45.040704","MEAN_MOTION":15.31902149,"ECCENTRICITY":0.00063457,"INCLINATION":97.373,"RA_OF_ASC_NODE":145.4097,"ARG_OF_PERICENTER":266.2302,"MEAN_ANOMALY":93.8214,"EPHEMERIS_TYPE":0,"CLASSIFICATION_TYPE":"U","NORAD_CAT_ID":63985,"ELEMENT_SET_NO":999,"REV_AT_EPOCH":4562,"BSTAR":0.0010528181,"MEAN_MOTION_DOT":0.00032471,"MEAN_MOTION_DDOT":0}]
